{"type": "FeatureCollection", "features": [{"type": "Feature", "properties": {"norad_id": 26766, "name": "INTELSAT 10 (IS-10)", "group": "intelsat", "lat": 4.280506091703339, "lon": 90.6140935591852, "alt_km": 36155.69713197664, "timestamp": "2025-12-10T14:53:36.789723+00:00", "meta": {"OBJECT_NAME": "INTELSAT 10 (IS-10)", "OBJECT_ID": "2001-019A", "EPOCH": "2025-12-10T05:42:37.717920", "MEAN_MOTION": 0.99078985, "ECCENTRICITY": 0.00078143, "INCLINATION": 8.6242, "RA_OF_ASC_NODE": 61.1822, "ARG_OF_PERICENTER": 223.3819, "MEAN_ANOMALY": 29.8284, "EPHEMERIS_TYPE": 0, "CLASSIFICATION_TYPE": "U", "NORAD_CAT_ID": 26766, "ELEMENT_SET_NO": 999, "REV_AT_EPOCH": 4370, "BSTAR": 0, "MEAN_MOTION_DOT": -2.87e-06, "MEAN_MOTION_DDOT": 0}, "tle": {"line1": "1 26766U 01019A   25344.23793655 -.00000287  00000+0  00000+0 0  9992", "line2": "2 26766   8.6242  61.1822 0007814 223.3819  29.8284  0.99078985 43701"}}, "geometry": {"type": "Point", "coordinates": [90.6140935591852, 4.280506091703339]}}, {"type": "Feature", "properties": {"norad_id": 26900, "name": "INTELSAT 902 (IS-902)", "group": "intelsat", "lat": 0.10875832960582567, "lon": -107.19754860915145, "alt_km": 35769.236326832484, "timestamp": "2025-12-10T14:53:36.789746+00:00", "meta": {"OBJECT_NAME": "INTELSAT 902 (IS-902)", "OBJECT_ID": "2001-039A", "EPOCH": "2025-12-01T16:59:59.311968", "MEAN_MOTION": 1.00270327, "ECCENTRICITY": 0.00043097, "INCLINATION": 5.6187, "RA_OF_ASC_NODE": 74.2002, "ARG_OF_PERICENTER": 175.119, "MEAN_ANOMALY": 26.3816, "EPHEMERIS_TYPE": 0, "CLASSIFICATION_TYPE": "U", "NORAD_CAT_ID": 26900, "ELEMENT_SET_NO": 999, "REV_AT_EPOCH": 8871, "BSTAR": 0, "MEAN_MOTION_DOT": -2.63e-06, "MEAN_MOTION_DDOT": 0}, "tle": {"line1": "1 26900U 01039A   25335.70832537 -.00000263  00000+0  00000+0 0  9993", "line2": "2 26900   5.6187  74.2002 0004309 175.1190  26.3816  1.00270327 88713"}}, "geometry": {"type": "Point", "coordinates": [-107.19754860915145, 0.10875832960582567]}}, {"type": "Feature", "properties": {"norad_id": 27380, "name": "INTELSAT 904 (IS-904)", "group": "intelsat", "lat": -2.2232000503203144, "lon": -88.63329492825683, "alt_km": 35779.93316903945, "timestamp": "2025-12-10T14:53:36.789761+00:00", "meta": {"OBJECT_NAME": "INTELSAT 904 (IS-904)", "OBJECT_ID": "2002-007A", "EPOCH": "2025-12-09T11:42:40.881024", "MEAN_MOTION": 1.00273083, "ECCENTRICITY": 0.0001514, "INCLINATION": 6.4469, "RA_OF_ASC_NODE": 71.4685, "ARG_OF_PERICENTER": 215.3872, "MEAN_ANOMALY": 295.774, "EPHEMERIS_TYPE": 0, "CLASSIFICATION_TYPE": "U", "NORAD_CAT_ID": 27380, "ELEMENT_SET_NO": 999, "REV_AT_EPOCH": 4986, "BSTAR": 0, "MEAN_MOTION_DOT": -2.24e-06, "MEAN_MOTION_DDOT": 0}, "tle": {"line1": "1 27380U 02007A   25343.48797316 -.00000224  00000+0  00000+0 0  9998", "line2": "2 27380   6.4469  71.4685 0001514 215.3872 295.7740  1.00273083 49866"}}, "geometry": {"type": "Point", "coordinates": [-88.63329492825683, -2.2232000503203144]}}, {"type": "Feature", "properties": {"norad_id": 27426, "name": "DIRECTV 5 (TEMPO 1)", "group": "intelsat", "lat": 3.971874700038477, "lon": -167.0934285087539, "alt_km": 35784.4801859862, "timestamp": "2025-12-10T14:53:36.789772+00:00", "meta": {"OBJECT_NAME": "DIRECTV 5 (TEMPO 1)", "OBJECT_ID": "2002-023A", "EPOCH": "2025-12-10T04:31:38.803584", "MEAN_MOTION": 1.00272185, "ECCENTRICITY": 0.00038976, "INCLINATION": 4.396, "RA_OF_ASC_NODE": 77.6814, "ARG_OF_PERICENTER": 201.9504, "MEAN_ANOMALY": 117.3336, "EPHEMERIS_TYPE": 0, "CLASSIFICATION_TYPE": "U", "NORAD_CAT_ID": 27426, "ELEMENT_SET_NO": 999, "REV_AT_EPOCH": 8622, "BSTAR": 0, "MEAN_MOTION_DOT": -5.4e-07, "MEAN_MOTION_DDOT": 0}, "tle": {"line1": "1 27426U 02023A   25344.18864356 -.00000054  00000+0  00000+0 0  9995", "line2": "2 27426   4.3960  77.6814 0003897 201.9504 117.3336  1.00272185 86224"}}, "geometry": {"type": "Point", "coordinates": [-167.0934285087539, 3.971874700038477]}}, {"type": "Feature", "properties": {"norad_id": 27438, "name": "INTELSAT 905 (IS-905)", "group": "intelsat", "lat": 6.270758509984885, "lon": 165.78680174974286, "alt_km": 35787.0717827438, "timestamp": "2025-12-10T14:53:36.789783+00:00", "meta": {"OBJECT_NAME": "INTELSAT 905 (IS-905)", "OBJECT_ID": "2002-027A", "EPOCH": "2025-12-10T08:00:15.399648", "MEAN_MOTION": 1.00272248, "ECCENTRICITY": 0.00028043, "INCLINATION": 6.28, "RA_OF_ASC_NODE": 72.0832, "ARG_OF_PERICENTER": 193.2254, "MEAN_ANOMALY": 156.8609, "EPHEMERIS_TYPE": 0, "CLASSIFICATION_TYPE": "U", "NORAD_CAT_ID": 27438, "ELEMENT_SET_NO": 999, "REV_AT_EPOCH": 4946, "BSTAR": 0, "MEAN_MOTION_DOT": 9.7e-07, "MEAN_MOTION_DDOT": 0}, "tle": {"line1": "1 27438U 02027A   25344.33351157  .00000097  00000+0  00000+0 0  9995", "line2": "2 27438   6.2800  72.0832 0002804 193.2254 156.8609  1.00272248 49468"}}, "geometry": {"type": "Point", "coordinates": [165.78680174974286, 6.270758509984885]}}, {"type": "Feature", "properties": {"norad_id": 27445, "name": "GALAXY 3C (G-3C)", "group": "intelsat", "lat": 2.56883598252966, "lon": -151.81485080564383, "alt_km": 35782.00814075597, "timestamp": "2025-12-10T14:53:36.789795+00:00", "meta": {"OBJECT_NAME": "GALAXY 3C (G-3C)", "OBJECT_ID": "2002-030A", "EPOCH": "2025-12-10T04:23:38.620896", "MEAN_MOTION": 1.00271026, "ECCENTRICITY": 0.00011114, "INCLINATION": 3.2582, "RA_OF_ASC_NODE": 80.529, "ARG_OF_PERICENTER": 95.9073, "MEAN_ANOMALY": 233.7736, "EPHEMERIS_TYPE": 0, "CLASSIFICATION_TYPE": "U", "NORAD_CAT_ID": 27445, "ELEMENT_SET_NO": 999, "REV_AT_EPOCH": 4459, "BSTAR": 0, "MEAN_MOTION_DOT": -1.49e-06, "MEAN_MOTION_DDOT": 0}, "tle": {"line1": "1 27445U 02030A   25344.18308589 -.00000149  00000+0  00000+0 0  9990", "line2": "2 27445   3.2582  80.5290 0001111  95.9073 233.7736  1.00271026 44597"}}, "geometry": {"type": "Point", "coordinates": [-151.81485080564383, 2.56883598252966]}}, {"type": "Feature", "properties": {"norad_id": 27513, "name": "INTELSAT 906 (IS-906)", "group": "intelsat", "lat": -4.932092290157785, "lon": 7.286782566203642, "alt_km": 35792.05183929358, "timestamp": "2025-12-10T14:53:36.789806+00:00", "meta": {"OBJECT_NAME": "INTELSAT 906 (IS-906)", "OBJECT_ID": "2002-041A", "EPOCH": "2025-12-09T20:43:37.286400", "MEAN_MOTION": 1.00271049, "ECCENTRICITY": 0.00061202, "INCLINATION": 5.3215, "RA_OF_ASC_NODE": 75.2657, "ARG_OF_PERICENTER": 190.4585, "MEAN_ANOMALY": 188.1629, "EPHEMERIS_TYPE": 0, "CLASSIFICATION_TYPE": "U", "NORAD_CAT_ID": 27513, "ELEMENT_SET_NO": 999, "REV_AT_EPOCH": 8513, "BSTAR": 0, "MEAN_MOTION_DOT": 1.5e-07, "MEAN_MOTION_DDOT": 0}, "tle": {"line1": "1 27513U 02041A   25343.86362600  .00000015  00000+0  00000+0 0  9997", "line2": "2 27513   5.3215  75.2657 0006120 190.4585 188.1629  1.00271049 85135"}}, "geometry": {"type": "Point", "coordinates": [7.286782566203642, -4.932092290157785]}}, {"type": "Feature", "properties": {"norad_id": 27954, "name": "GALAXY 13 (HORIZONS-1)", "group": "intelsat", "lat": 0.8557926147462078, "lon": 152.96825492935358, "alt_km": 35787.392747834914, "timestamp": "2025-12-10T14:53:36.789817+00:00", "meta": {"OBJECT_NAME": "GALAXY 13 (HORIZONS-1)", "OBJECT_ID": "2003-044A", "EPOCH": "2025-12-10T06:16:14.299104", "MEAN_MOTION": 1.00270435, "ECCENTRICITY": 0.00020264, "INCLINATION": 0.9291, "RA_OF_ASC_NODE": 86.5018, "ARG_OF_PERICENTER": 163.6709, "MEAN_ANOMALY": 133.1273, "EPHEMERIS_TYPE": 0, "CLASSIFICATION_TYPE": "U", "NORAD_CAT_ID": 27954, "ELEMENT_SET_NO": 999, "REV_AT_EPOCH": 4467, "BSTAR": 0, "MEAN_MOTION_DOT": 1.36e-06, "MEAN_MOTION_DDOT": 0}, "tle": {"line1": "1 27954U 03044A   25344.26127661  .00000136  00000+0  00000+0 0  9995", "line2": "2 27954   0.9291  86.5018 0002026 163.6709 133.1273  1.00270435 44673"}}, "geometry": {"type": "Point", "coordinates": [152.96825492935358, 0.8557926147462078]}}, {"type": "Feature", "properties": {"norad_id": 28358, "name": "INTELSAT 10-02", "group": "intelsat", "lat": -0.029843105961983966, "lon": -57.9069439183044, "alt_km": 35775.47220100103, "timestamp": "2025-12-10T14:53:36.789828+00:00", "meta": {"OBJECT_NAME": "INTELSAT 10-02", "OBJECT_ID": "2004-022A", "EPOCH": "2025-12-09T23:46:38.709984", "MEAN_MOTION": 1.00289796, "ECCENTRICITY": 0.00023988, "INCLINATION": 0.028, "RA_OF_ASC_NODE": 69.1558, "ARG_OF_PERICENTER": 175.9009, "MEAN_ANOMALY": 189.6126, "EPHEMERIS_TYPE": 0, "CLASSIFICATION_TYPE": "U", "NORAD_CAT_ID": 28358, "ELEMENT_SET_NO": 999, "REV_AT_EPOCH": 7865, "BSTAR": 0, "MEAN_MOTION_DOT": -4e-08, "MEAN_MOTION_DDOT": 0}, "tle": {"line1": "1 28358U 04022A   25343.99072581 -.00000004  00000+0  00000+0 0  9995", "line2": "2 28358   0.0280  69.1558 0002398 175.9009 189.6126  1.00289796 78656"}}, "geometry": {"type": "Point", "coordinates": [-57.9069439183044, -0.029843105961983966]}}, {"type": "Feature", "properties": {"norad_id": 28626, "name": "XM-3 (RHYTHM)", "group": "intelsat", "lat": -0.020625669826795315, "lon": 67.39573406019564, "alt_km": 36158.78141399761, "timestamp": "2025-12-10T14:53:36.789839+00:00", "meta": {"OBJECT_NAME": "XM-3 (RHYTHM)", "OBJECT_ID": "2005-008A", "EPOCH": "2025-12-10T05:30:38.805984", "MEAN_MOTION": 0.9895347, "ECCENTRICITY": 0.00014176, "INCLINATION": 0.1684, "RA_OF_ASC_NODE": 81.2752, "ARG_OF_PERICENTER": 266.0581, "MEAN_ANOMALY": 300.7784, "EPHEMERIS_TYPE": 0, "CLASSIFICATION_TYPE": "U", "NORAD_CAT_ID": 28626, "ELEMENT_SET_NO": 999, "REV_AT_EPOCH": 4072, "BSTAR": 0, "MEAN_MOTION_DOT": -2.23e-06, "MEAN_MOTION_DDOT": 0}, "tle": {"line1": "1 28626U 05008A   25344.22961581 -.00000223  00000+0  00000+0 0  9995", "line2": "2 28626   0.1684  81.2752 0001417 266.0581 300.7784  0.98953470 40728"}}, "geometry": {"type": "Point", "coordinates": [67.39573406019564, -0.020625669826795315]}}]}